CCSDS_OMM_VERS = 2.0
CREATION_DATE  = 
ORIGINATOR     = 

OBJECT_NAME    = UNKNOWN
OBJECT_ID      = 
CENTER_NAME    = EARTH
REF_FRAME      = TEME
TIME_SYSTEM    = UTC
MEAN_ELEMENT_THEORY = SGP/SGP4

EPOCH          = 2026-01-08T17:21:31.601952
MEAN_MOTION    = 14.07931335
ECCENTRICITY   = .0050649
INCLINATION    = 89.9939
RA_OF_ASC_NODE = 271.6930
ARG_OF_PERICENTER = 155.8083
MEAN_ANOMALY   = 204.5495

EPHEMERIS_TYPE = 0
CLASSIFICATION_TYPE = U
NORAD_CAT_ID   = 87334
ELEMENT_SET_NO = 999
REV_AT_EPOCH   = 39044
BSTAR          = .12397E-1
MEAN_MOTION_DOT = .2135E-3
MEAN_MOTION_DDOT = 0

CCSDS_OMM_VERS = 2.0
CREATION_DATE  = 
ORIGINATOR     = 

OBJECT_NAME    = UNKNOWN
OBJECT_ID      = 
CENTER_NAME    = EARTH
REF_FRAME      = TEME
TIME_SYSTEM    = UTC
MEAN_ELEMENT_THEORY = SGP/SGP4

EPOCH          = 2026-01-09T15:37:55.340544
MEAN_MOTION    = 14.08276080
ECCENTRICITY   = .0071791
INCLINATION    = 89.9786
RA_OF_ASC_NODE = 267.9542
ARG_OF_PERICENTER = 128.0035
MEAN_ANOMALY   = 232.7660

EPHEMERIS_TYPE = 0
CLASSIFICATION_TYPE = U
NORAD_CAT_ID   = 87335
ELEMENT_SET_NO = 999
REV_AT_EPOCH   = 39090
BSTAR          = .97248E-2
MEAN_MOTION_DOT = .17049E-3
MEAN_MOTION_DDOT = 0

CCSDS_OMM_VERS = 2.0
CREATION_DATE  = 
ORIGINATOR     = 

OBJECT_NAME    = UNKNOWN
OBJECT_ID      = 
CENTER_NAME    = EARTH
REF_FRAME      = TEME
TIME_SYSTEM    = UTC
MEAN_ELEMENT_THEORY = SGP/SGP4

EPOCH          = 2026-01-07T19:04:43.613472
MEAN_MOTION    = 13.96476460
ECCENTRICITY   = .0056531
INCLINATION    = 82.7484
RA_OF_ASC_NODE = 39.5621
ARG_OF_PERICENTER = 253.8619
MEAN_ANOMALY   = 105.6322

EPHEMERIS_TYPE = 0
CLASSIFICATION_TYPE = U
NORAD_CAT_ID   = 87405
ELEMENT_SET_NO = 999
REV_AT_EPOCH   = 61479
BSTAR          = .13569E-2
MEAN_MOTION_DOT = .1914E-4
MEAN_MOTION_DDOT = 0

CCSDS_OMM_VERS = 2.0
CREATION_DATE  = 
ORIGINATOR     = 

OBJECT_NAME    = UNKNOWN
OBJECT_ID      = 
CENTER_NAME    = EARTH
REF_FRAME      = TEME
TIME_SYSTEM    = UTC
MEAN_ELEMENT_THEORY = SGP/SGP4

EPOCH          = 2026-01-08T23:21:18.806976
MEAN_MOTION    = 14.29988321
ECCENTRICITY   = .0068937
INCLINATION    = 65.7827
RA_OF_ASC_NODE = 260.6988
ARG_OF_PERICENTER = 280.5140
MEAN_ANOMALY   = 94.0009

EPHEMERIS_TYPE = 0
CLASSIFICATION_TYPE = U
NORAD_CAT_ID   = 87426
ELEMENT_SET_NO = 999
REV_AT_EPOCH   = 62648
BSTAR          = .13831E-2
MEAN_MOTION_DOT = .3575E-4
MEAN_MOTION_DDOT = 0

CCSDS_OMM_VERS = 2.0
CREATION_DATE  = 
ORIGINATOR     = 

OBJECT_NAME    = UNKNOWN
OBJECT_ID      = 
CENTER_NAME    = EARTH
REF_FRAME      = TEME
TIME_SYSTEM    = UTC
MEAN_ELEMENT_THEORY = SGP/SGP4

EPOCH          = 2026-01-08T01:25:38.943264
MEAN_MOTION    = 13.90693009
ECCENTRICITY   = .0062261
INCLINATION    = 100.4512
RA_OF_ASC_NODE = 222.8304
ARG_OF_PERICENTER = 135.7966
MEAN_ANOMALY   = 224.8187

EPHEMERIS_TYPE = 0
CLASSIFICATION_TYPE = U
NORAD_CAT_ID   = 87448
ELEMENT_SET_NO = 999
REV_AT_EPOCH   = 61289
BSTAR          = .91268E-3
MEAN_MOTION_DOT = .1103E-4
MEAN_MOTION_DDOT = 0

CCSDS_OMM_VERS = 2.0
CREATION_DATE  = 
ORIGINATOR     = 

OBJECT_NAME    = UNKNOWN
OBJECT_ID      = 
CENTER_NAME    = EARTH
REF_FRAME      = TEME
TIME_SYSTEM    = UTC
MEAN_ELEMENT_THEORY = SGP/SGP4

EPOCH          = 2026-01-07T18:10:48.876960
MEAN_MOTION    = 14.13883664
ECCENTRICITY   = .0511302
INCLINATION    = 65.7771
RA_OF_ASC_NODE = 21.9194
ARG_OF_PERICENTER = 351.5325
MEAN_ANOMALY   = 7.7361

EPHEMERIS_TYPE = 0
CLASSIFICATION_TYPE = U
NORAD_CAT_ID   = 87456
ELEMENT_SET_NO = 999
REV_AT_EPOCH   = 61517
BSTAR          = .13622E-2
MEAN_MOTION_DOT = .9263E-4
MEAN_MOTION_DDOT = 0

CCSDS_OMM_VERS = 2.0
CREATION_DATE  = 
ORIGINATOR     = 

OBJECT_NAME    = UNKNOWN
OBJECT_ID      = 
CENTER_NAME    = EARTH
REF_FRAME      = TEME
TIME_SYSTEM    = UTC
MEAN_ELEMENT_THEORY = SGP/SGP4

EPOCH          = 2026-01-07T02:14:48.157152
MEAN_MOTION    = 13.61427686
ECCENTRICITY   = .067469
INCLINATION    = 65.8225
RA_OF_ASC_NODE = 171.0385
ARG_OF_PERICENTER = 294.4027
MEAN_ANOMALY   = 173.6008

EPHEMERIS_TYPE = 0
CLASSIFICATION_TYPE = U
NORAD_CAT_ID   = 87517
ELEMENT_SET_NO = 999
REV_AT_EPOCH   = 59636
BSTAR          = .84665E-3
MEAN_MOTION_DOT = .301E-4
MEAN_MOTION_DDOT = 0

CCSDS_OMM_VERS = 2.0
CREATION_DATE  = 
ORIGINATOR     = 

OBJECT_NAME    = UNKNOWN
OBJECT_ID      = 
CENTER_NAME    = EARTH
REF_FRAME      = TEME
TIME_SYSTEM    = UTC
MEAN_ELEMENT_THEORY = SGP/SGP4

EPOCH          = 2026-01-07T20:38:11.085792
MEAN_MOTION    = 13.35600876
ECCENTRICITY   = .0059401
INCLINATION    = 99.6989
RA_OF_ASC_NODE = 225.4652
ARG_OF_PERICENTER = 199.0335
MEAN_ANOMALY   = 173.9236

EPHEMERIS_TYPE = 0
CLASSIFICATION_TYPE = U
NORAD_CAT_ID   = 87541
ELEMENT_SET_NO = 999
REV_AT_EPOCH   = 58552
BSTAR          = .29151E-3
MEAN_MOTION_DOT = .108E-5
MEAN_MOTION_DDOT = 0

CCSDS_OMM_VERS = 2.0
CREATION_DATE  = 
ORIGINATOR     = 

OBJECT_NAME    = UNKNOWN
OBJECT_ID      = 
CENTER_NAME    = EARTH
REF_FRAME      = TEME
TIME_SYSTEM    = UTC
MEAN_ELEMENT_THEORY = SGP/SGP4

EPOCH          = 2026-01-09T00:22:07.164480
MEAN_MOTION    = 13.53633782
ECCENTRICITY   = .0697697
INCLINATION    = 65.6701
RA_OF_ASC_NODE = 289.8509
ARG_OF_PERICENTER = 215.4297
MEAN_ANOMALY   = 139.8469

EPHEMERIS_TYPE = 0
CLASSIFICATION_TYPE = U
NORAD_CAT_ID   = 87553
ELEMENT_SET_NO = 999
REV_AT_EPOCH   = 59494
BSTAR          = .4526E-3
MEAN_MOTION_DOT = .141E-4
MEAN_MOTION_DDOT = 0

CCSDS_OMM_VERS = 2.0
CREATION_DATE  = 
ORIGINATOR     = 

OBJECT_NAME    = UNKNOWN
OBJECT_ID      = 
CENTER_NAME    = EARTH
REF_FRAME      = TEME
TIME_SYSTEM    = UTC
MEAN_ELEMENT_THEORY = SGP/SGP4

EPOCH          = 2026-01-08T08:26:13.067232
MEAN_MOTION    = 13.28047640
ECCENTRICITY   = .0082392
INCLINATION    = 101.7400
RA_OF_ASC_NODE = 232.2781
ARG_OF_PERICENTER = 318.3228
MEAN_ANOMALY   = 41.1628

EPHEMERIS_TYPE = 0
CLASSIFICATION_TYPE = U
NORAD_CAT_ID   = 87557
ELEMENT_SET_NO = 999
REV_AT_EPOCH   = 56856
BSTAR          = .97932E-2
MEAN_MOTION_DOT = .4473E-4
MEAN_MOTION_DDOT = 0

CCSDS_OMM_VERS = 2.0
CREATION_DATE  = 
ORIGINATOR     = 

OBJECT_NAME    = UNKNOWN
OBJECT_ID      = 
CENTER_NAME    = EARTH
REF_FRAME      = TEME
TIME_SYSTEM    = UTC
MEAN_ELEMENT_THEORY = SGP/SGP4

EPOCH          = 2026-01-06T21:48:39.593376
MEAN_MOTION    = 12.32160019
ECCENTRICITY   = .0175325
INCLINATION    = 102.0075
RA_OF_ASC_NODE = 68.7488
ARG_OF_PERICENTER = 246.8403
MEAN_ANOMALY   = 289.4712

EPHEMERIS_TYPE = 0
CLASSIFICATION_TYPE = U
NORAD_CAT_ID   = 87561
ELEMENT_SET_NO = 999
REV_AT_EPOCH   = 54553
BSTAR          = .71066E-3
MEAN_MOTION_DOT = .46E-6
MEAN_MOTION_DDOT = 0

CCSDS_OMM_VERS = 2.0
CREATION_DATE  = 
ORIGINATOR     = 

OBJECT_NAME    = UNKNOWN
OBJECT_ID      = 
CENTER_NAME    = EARTH
REF_FRAME      = TEME
TIME_SYSTEM    = UTC
MEAN_ELEMENT_THEORY = SGP/SGP4

EPOCH          = 2026-01-09T04:55:29.660160
MEAN_MOTION    = 14.06058172
ECCENTRICITY   = .0172462
INCLINATION    = 99.9482
RA_OF_ASC_NODE = 8.4998
ARG_OF_PERICENTER = 96.5393
MEAN_ANOMALY   = 265.5437

EPHEMERIS_TYPE = 0
CLASSIFICATION_TYPE = U
NORAD_CAT_ID   = 87565
ELEMENT_SET_NO = 999
REV_AT_EPOCH   = 62029
BSTAR          = .68815E-3
MEAN_MOTION_DOT = .1241E-4
MEAN_MOTION_DDOT = 0

