UNKNOWN                 
1 87334U          26008.72328243  .00021350  00000+0  12397-1 0  9995
2 87334  89.9939 271.6930 0050649 155.8083 204.5495 14.07931335390441
UNKNOWN                 
1 87335U          26009.65133496  .00017049  00000+0  97248-2 0  9992
2 87335  89.9786 267.9542 0071791 128.0035 232.7660 14.08276080390907
UNKNOWN                 
1 87405U          26007.79494923  .00001914  00000+0  13569-2 0  9996
2 87405  82.7484  39.5621 0056531 253.8619 105.6322 13.96476460614791
UNKNOWN                 
1 87426U          26008.97313434  .00003575  00000+0  13831-2 0  9994
2 87426  65.7827 260.6988 0068937 280.5140  94.0009 14.29988321626481
UNKNOWN                 
1 87448U          26008.05947851  .00001103  00000+0  91268-3 0  9999
2 87448 100.4512 222.8304 0062261 135.7966 224.8187 13.90693009612899
UNKNOWN                 
1 87456U          26007.75751015  .00009263  00000+0  13622-2 0  9991
2 87456  65.7771  21.9194 0511302 351.5325   7.7361 14.13883664615175
UNKNOWN                 
1 87517U          26007.09361293  .00003010  00000+0  84665-3 0  9991
2 87517  65.8225 171.0385 0674690 294.4027 173.6008 13.61427686596361
UNKNOWN                 
1 87541U          26007.85985053  .00000108  00000+0  29151-3 0  9992
2 87541  99.6989 225.4652 0059401 199.0335 173.9236 13.35600876585527
UNKNOWN                 
1 87553U          26009.01536070  .00001410  00000+0  45260-3 0  9992
2 87553  65.6701 289.8509 0697697 215.4297 139.8469 13.53633782594942
UNKNOWN                 
1 87557U          26008.35154013  .00004473  00000+0  97932-2 0  9999
2 87557 101.7400 232.2781 0082392 318.3228  41.1628 13.28047640568560
UNKNOWN                 
1 87561U          26006.90879159  .00000046  00000+0  71066-3 0  9991
2 87561 102.0075  68.7488 0175325 246.8403 289.4712 12.32160019545535
UNKNOWN                 
1 87565U          26009.20520440  .00001241  00000+0  68815-3 0  9993
2 87565  99.9482   8.4998 0172462  96.5393 265.5437 14.06058172620294
